#dP2024  7 25  0  0  0.00000000      96 __u+U IGS20 EXT  IAC
## 2324 345600.00000000   900.00000000 60516 0.0000000000000
+   54   G02G03G04G05G06G07G08G09G10G11G12G13G14G15G16G17G18
+        G19G20G21G22G23G24G25G26G27G28G29G30G31G32R01R02R03
+        R04R05R07R08R09R11R12R13R14R15R16R17R18R19R20R21R22
+        R24R25R26  0  0  0  0  0  0  0  0  0  0  0  0  0  0
+          0  0  0  0  0  0  0  0  0  0  0  0  0  0  0  0  0
++         6  8  7  8  8  7  8  7  9  8  8  9  6 10  7  9  9
++         9  8  7  8  9  8  8  9  6  8  9  7  8  7  9  9  8
++         7  9  8  9  7  8  7  9  7  7  8  7  9  9  8  9  7
++         9  9  9  0  0  0  0  0  0  0  0  0  0  0  0  0  0
++         0  0  0  0  0  0  0  0  0  0  0  0  0  0  0  0  0
%c M  cc GPS ccc cccc cccc cccc cccc ccccc ccccc ccccc ccccc
%c cc cc ccc ccc cccc cccc cccc cccc ccccc ccccc ccccc ccccc
%f  0.0000000  0.000000000  0.00000000000  0.000000000000000
%f  0.0000000  0.000000000  0.00000000000  0.000000000000000
%i    0    0    0    0      0      0      0      0         0
%i    0    0    0    0      0      0      0      0         0
/* IAC                                ULTRA-RAPID PREDICTION
/* S/V CLOCKS ARE ALIGNED TO GNSS TIME                      
/* G:C1WC2W R:C1PC2P E:C1XC5X C:C2IC6I J:C1CC2S             
/* PCV:IGS20_2317 OL/AL:FES2004  NONE     YN ORB:CoN CLK:CoN
*  2024 07 25 11  0  0.00000000
PG02  17569.008570   4722.433594  19931.162271   -392.236808
PG03  19904.768068  -8530.188990  15133.148586    472.899919
PG04  25776.677322    282.252019  -6681.329759    410.862294
PG05 -13443.192232  -7035.466797 -21988.259059   -180.938920
PG06  -4139.449866 -25155.788640   7311.436370    140.319694
PG07   9651.599721 -14099.424850 -19689.406361    -63.254312
PG08  25525.295023   6595.146723  -4875.753233    288.974163
PG09  19254.600234  -8861.525132 -16125.704886    287.127252
PG10  -7926.720688  22312.381822  11896.182882    -75.327798
PG11 -12360.513616 -22573.524736  -6674.143772   -710.884560
PG12 -20041.832000   4677.906585  16483.946110   -525.079175
PG13 -20059.987569 -13950.130474 -10918.266315    666.767509
PG14  11343.870112 -22476.651925   8142.343036    456.967696
PG15 -25947.995709  -3889.015449  -5218.540208    185.027864
PG16  10315.377522  11409.058532 -21971.671144   -226.995098
PG17   5213.455705 -14425.107130  22112.880407    670.234702
PG18  -9095.889467  14765.435641 -20038.697332   -640.071294
PG19  -5359.922328 -16006.330543  20442.468885    515.356486
PG20  -6896.816629 -16421.106245 -19684.413154    372.389471
PG21  18444.227114  10935.127533  16732.862846    106.786822
PG22   5492.274835 -21279.647160  15537.364877    -43.693520
PG23 -16123.809015  20958.773432   -143.756889    281.923804
PG24 -18228.781335  -7105.516946  17712.675424   -484.443363
PG25 -19677.031485  15174.326463   8673.660956    498.823218
PG26    869.424575  20682.885297 -16586.696357    113.480685
PG27  18725.113299  12911.229063 -14347.438100    -31.883420
PG28   3289.498935  24621.920714   9391.199656   -345.694719
PG29 -22217.754972   4575.697328 -13964.994805   -587.755182
PG30   1996.067601 -22550.456479 -13520.573014   -351.767399
PG31  10392.836833  24125.647101  -2260.543879   -226.485405
PG32  -2148.177473  15121.125462  21943.980755   -610.211976
PR01 -20080.818297  -2605.237596 -15524.243139     92.449431
PR02 -24891.787566   5390.348046    521.615679    -23.836372
PR03 -15751.491136  11353.893173  16552.171323    104.392936
PR04   1474.503395  10618.717494  23171.585403    246.782543
PR05  18089.901510   4520.273589  17426.362287    135.040199
PR07  15313.279819 -11402.589099 -16905.266410     87.432441
PR08  -1803.359306 -10644.098216 -23053.829720     -6.161730
PR09  12879.534684  -8925.633166 -20075.744355    199.649592
PR11   2805.568983 -23712.178029   8960.922553     17.083538
PR12  -7830.282752 -10348.230742  21992.929227     42.864803
PR13 -12557.166136   6095.222171  21343.442350    -49.793235
PR14 -10294.952694  22307.139981   6925.535831     26.724588
PR15  -2015.522031  23192.328318 -10413.977957     77.535577
PR16   7609.275741  10512.075263 -21951.409977     27.680651
PR17  -3243.022511  11737.097381 -22401.592107    107.715967
PR18   9738.520205  19850.079438 -12745.009553    153.714060
PR19  16743.846401  19162.973217   1661.955554   -285.126533
PR20  15410.112487   4887.383683  19747.172249   -116.698809
PR21   3607.251804 -11367.041022  22550.078189   -120.448073
PR22  -9845.694273 -20437.262991  11682.525326     82.249690
PR24 -15673.651152  -3440.587372 -19823.724341    -65.122989
PR25   3615.390861 -12096.637441  22172.022966    -98.072630
PR26   -372.298014 -10941.076562 -23019.928391      6.149330
*  2024 07 25 11 15  0.00000000
PG02  18466.728738   6622.405258  18520.976356   -392.230112
PG03  18879.143150  -6957.848508  17111.966165    472.914147
PG04  26338.799258    598.861397  -3909.283113    410.869182
PG05 -12048.136732  -9080.916735 -22040.854049   -180.940118
PG06  -3617.184903 -24307.372843   9998.010613    140.298688
PG07  10704.502564 -11911.792201 -20588.784856    -63.247873
PG08  24815.661611   6767.261367  -7571.787182    288.988228
PG09  20941.103572  -8512.827654 -14074.770456    287.140909
PG10  -8792.271768  23154.353843   9333.118548    -75.336984
PG11 -12355.993252 -23221.445542  -3896.558294   -710.890342
PG12 -18827.337792   3037.244910  18187.389554   -525.081932
PG13 -18717.608264 -13756.942877 -13310.100947    666.769605
PG14  12063.822951 -22900.561072   5451.714822    456.975653
PG15 -25267.373960  -4198.787428  -7881.307045    185.031696
PG16   8657.216265  13183.747470 -21648.440558   -226.985679
PG17   7583.593310 -13962.148496  21727.636897    670.227344
PG18 -10052.496735  12611.714137 -21045.817136   -640.074674
PG19  -3000.742114 -15512.920966  21245.734886    515.361256
PG20  -5798.038910 -18314.165451 -18339.925825    372.389054
PG21  19153.187975  12481.110342  14774.507296    106.784878
PG22   6676.721433 -22340.546958  13403.565750    -43.697528
PG23 -16192.321219  20681.859440  -3042.185353    281.931722
PG24 -19019.071252  -8952.060375  16042.130141   -484.444545
PG25 -19203.586084  14046.922133  11196.682836    498.823482
PG26   -296.976289  22057.754018 -14676.590298    113.474246
PG27  17023.492923  12864.096890 -16369.193700    -31.884145
PG28   2577.198001  23608.702213  11882.443177   -345.708739
PG29 -23606.689062   4117.300792 -11637.170212   -587.753297
PG30   2898.766980 -21081.896784 -15573.875363   -351.761488
PG31  10136.966877  24305.348544    602.902329   -226.485130
PG32  -4584.521065  14820.840084  21754.998258   -610.209968
PR01 -18078.427299  -3064.504131 -17741.928958     92.450376
PR02 -24716.137872   5520.490000  -2703.010449    -23.836397
PR03 -17553.904431  11932.244371  14146.461279    104.393526
PR04  -1277.955575  11300.213897  22857.341203    246.784143
PR05  15855.811288   4938.099803  19378.420082    135.040642
PR07  17172.530727 -11993.634461 -14555.840160     87.433226
PR08    950.371603 -11349.523829 -22770.054133     -6.162009
PR09  12231.284023  -6444.072914 -21393.564507    199.651447
PR11   2914.113669 -24632.521265   5921.976034     17.082390
PR12  -7173.344285 -12900.073391  20837.086404     42.865132
PR13 -11829.498759   3500.107554  22319.843894    -49.793772
PR14  -9921.447878  21336.461718   9897.180733     26.724433
PR15  -2198.558922  24289.834882  -7465.815280     77.535183
PR16   6970.731569  13072.795995 -20759.546968     27.680881
PR17  -5161.555188   9688.092570 -23016.992850    107.718932
PR18   8673.764918  18470.692962 -15321.265728    153.715729
PR19  16912.348516  19021.629006  -1584.685757   -285.127744
PR20  17039.268505   6545.626718  17838.405264   -116.699466
PR21   5516.366944  -9290.219048  23105.260343   -120.451020
PR22  -8872.225502 -19159.415636  14333.069016     82.243398
PR24 -17355.194208  -5064.103380 -17993.382464    -65.124315
PR25   5434.755498  -9999.941938  22833.463171    -98.074185
PR26   2350.067479 -11665.594592 -22540.816258      6.151069
EOF
